CUTE-1 (CO-55)          
1 27844U 03031E   21067.03416658  .00000076  00000-0  53807-4 0  9991
2 27844  98.6831  76.7735 0010146  19.0610 341.0945 14.22292641917608
CUBESAT XI-IV (CO-57)   
1 27848U 03031J   21066.99726162  .00000055  00000-0  44575-4 0  9992
2 27848  98.6889  77.3050 0010272  31.6886 328.4908 14.21871697917428
CUBESAT XI-V            
1 28895U 05043F   21066.78709538  .00000197  00000-0  46624-4 0  9999
2 28895  98.0410 202.3474 0017213 166.5884 193.5779 14.63874374819130
CUTE-1.7+APD II (CO-65) 
1 32785U 08021C   21066.83820614  .00000420  00000-0  50610-4 0  9995
2 32785  97.6016  49.6858 0012584 346.9622  13.1269 14.88649695697125
AAUSAT-II               
1 32788U 08021F   21066.72168736  .00000801  00000-0  77359-4 0  9998
2 32788  97.5016  65.6747 0010238 248.9240 111.0887 14.95424070698652
DELFI-C3 (DO-64)        
1 32789U 08021G   21067.34370511  .00001389  00000-0  92628-4 0  9992
2 32789  97.3889 106.5676 0013368 126.4299 233.8164 15.08580041701681
SEEDS II (CO-66)        
1 32791U 08021J   21067.45217817  .00000634  00000-0  69004-4 0  9990
2 32791  97.5637  56.2782 0011954 307.3452  52.6677 14.91302410697803
SWISSCUBE               
1 35932U 09051B   21067.50795623  .00000168  00000-0  48875-4 0  9991
2 35932  98.6080 264.3136 0008295  44.0361 316.1495 14.56497112608308
BEESAT-1                
1 35933U 09051C   21067.06555387  .00000148  00000-0  44209-4 0  9999
2 35933  98.6054 265.7042 0006703  58.3322 301.8528 14.56559719608353
ITUPSAT1                
1 35935U 09051E   21067.07820932  .00000125  00000-0  39908-4 0  9998
2 35935  98.6160 265.8750 0009011  57.0527 303.1535 14.55695855608059
TISAT 1                 
1 36799U 10035E   21066.75948485  .00000418  00000-0  47713-4 0  9997
2 36799  98.2055 253.4538 0012136 181.0484 179.0710 14.91627419578171
M-CUBED & EXP-1 PRIME   
1 37855U 11061F   21066.87409481  .00001749  00000-0  91703-4 0  9998
2 37855 101.7232 297.6090 0168118  12.7691 347.7701 15.07278317510871
AEROCUBE 4.5A           
1 38767U 12048K   21067.49337979  .00000442  00000-0  50618-4 0  9997
2 38767  64.6657 130.5652 0141235  40.4256 320.7247 14.92610212 81200
AEROCUBE 4.5B           
1 38768U 12048L   21067.17907037  .00001067  00000-0  92945-4 0  9994
2 38768  64.6657  95.3429 0132692  34.8450 326.1261 14.96409897 81330
STRAND-1                
1 39090U 13009E   21067.10607149 -.00000036  00000-0  24991-5 0  9998
2 39090  98.4359 271.6472 0008433 214.4240 145.6400 14.35170988420524
SOMP                    
1 39134U 13015E   21067.21420763  .00002202  00000-0  10450-3 0  9990
2 39134  64.8636 141.5838 0007090 230.9479 129.1019 15.22113792436183
BEESAT-3                
1 39135U 13015F   21067.52972011  .00001747  00000-0  92452-4 0  9999
2 39135  64.8678 168.1115 0010699 197.4853 162.5907 15.19014660435709
BEESAT-2                
1 39136U 13015G   21067.15635637  .00001924  00000-0  10198-3 0  9992
2 39136  64.8766 175.2969 0027765 255.7598 104.0444 15.18395389435537
NEE-01 PEGASO           
1 39151U 13018B   21067.50779981  .00000219  00000-0  35707-4 0  9992
2 39151  97.9736 170.5998 0016123 329.0744  30.9517 14.80297582424745
ESTCUBE 1               
1 39161U 13021C   21067.16387865  .00000224  00000-0  43067-4 0  9999
2 39161  97.9437 150.6661 0010653 112.8139 247.4202 14.72434977420843
POPACS 1                
1 39268U 13055D   21066.84429955  .00004982  00000-0  13322-3 0  9990
2 39268  81.0024  17.2387 0607585 158.4774 204.3192 14.41656995385917
POPACS 2                
1 39269U 13055E   21067.21847860  .00002974  00000-0  85485-4 0  9991
2 39269  81.0130  61.1751 0669569 272.3059  80.1665 14.27194658384800
POPACS 3                
1 39270U 13055F   21066.79048980  .00004394  00000-0  13658-3 0  9991
2 39270  81.0136  87.0380 0704847 346.1905  12.0820 14.18024075362439
ZACUBE-1 (TSHEPISOSAT)  
1 39417U 13066B   21067.20566284  .00000327  00000-0  46947-4 0  9995
2 39417  97.5856  56.8251 0059789 132.0633 228.5689 14.81442334394087
WNISAT-1                
1 39423U 13066H   21067.52230403  .00000091  00000-0  27496-4 0  9994
2 39423  97.7993 336.9632 0175648 151.7285 209.3605 14.53190136386778
TRITON-1                
1 39427U 13066M   21067.45200478  .00000378  00000-0  68212-4 0  9998
2 39427  97.7634  20.2807 0112450 314.4655  44.7396 14.68170710390586
GOMX-1                  
1 39430U 13066Q   21067.55310402  .00000325  00000-0  66976-4 0  9999
2 39430  97.8115 356.4354 0152134  72.8090 288.9700 14.59548084388320
CUBEBUG-2 (LO-74)       
1 39440U 13066AA  21067.18552582  .00000275  00000-0  44984-4 0  9995
2 39440  97.6646  41.5994 0079226 203.1688 156.5944 14.76176678392681
NEE-02 KRYSAOR          
1 39441U 13066AB  21067.17513085  .00000177  00000-0  32316-4 0  9997
2 39441  97.6738  38.9742 0080622 213.7730 145.8330 14.75134419392442
FUNCUBE-1 (AO-73)       
1 39444U 13066AE  21067.52130418  .00000395  00000-0  54209-4 0  9991
2 39444  97.5771  59.4655 0059063 122.0998 238.5969 14.82333807393073
UWE-3                   
1 39446U 13066AG  21067.19648007  .00000284  00000-0  43951-4 0  9993
2 39446  97.6270  48.6407 0069991 168.2892 191.9969 14.78710329392132
AEROCUBE 5A             
1 39465U 13072D   21067.41640568  .00005505  00000-0  43374-3 0  9999
2 39465 120.4958  41.2776 0259308 153.4577 208.0014 14.79775871 80384
AEROCUBE 5B             
1 39466U 13072E   21067.11938149  .00009937  00000-0  63764-3 0  9990
2 39466 120.4753  91.6038 0228206 164.3486 196.4770 14.90322514 80813
BRITE-CA1 (TORONTO)     
1 40020U 14033L   21067.50231773  .00000120  00000-0  28884-4 0  9998
2 40020  97.7352 246.6615 0086188 310.6290  48.7442 14.66714046359468
DUCHIFAT-1              
1 40021U 14033M   21066.81506043  .00000535  00000-0  59597-4 0  9992
2 40021  97.9644   5.9917 0013730 134.3982 225.8362 14.91209429365130
NANOSATC-BR1            
1 40024U 14033Q   21067.05551967  .00000451  00000-0  52289-4 0  9995
2 40024  97.9449   1.6901 0012972 138.5763 221.6440 14.90329296365014
QB50P1                  
1 40025U 14033R   21066.77241254  .00000405  00000-0  48640-4 0  9994
2 40025  97.9283 357.2307 0013056 147.3354 212.8673 14.89349414364289
QB50P2                  
1 40032U 14033Y   21066.77208623  .00000374  00000-0  45884-4 0  9997
2 40032  97.9136 354.0747 0012532 144.4084 215.7971 14.88864200364167
PERSEUS-M2              
1 40037U 14033AD  21067.18293205  .00000138  00000-0  21752-4 0  9994
2 40037  97.8908 347.5423 0014709 162.0552 198.1186 14.86635367364340
PERSEUS-M1              
1 40039U 14033AF  21067.52904484  .00000128  00000-0  20799-4 0  9991
2 40039  97.8854 346.3590 0014622 159.3833 200.7975 14.86255865364302
POLYITAN-1              
1 40042U 14033AJ  21067.07940537  .00000605  00000-0  70039-4 0  9996
2 40042  97.9375 358.2591 0015405 138.6142 221.6245 14.89140542364738
TIGRISAT                
1 40043U 14033AK  21067.54829218  .00000200  00000-0  36692-4 0  9999
2 40043  97.6826 276.6086 0058787 223.7642 135.8900 14.74489465361263
AEROCUBE 6A             
1 40045U 14033AM  21067.52652052  .00000268  00000-0  45386-4 0  9993
2 40045  97.7071 283.3707 0056814 214.0329 145.7232 14.75750692361292
AEROCUBE 6B             
1 40046U 14033AN  21066.85809952  .00000394  00000-0  63434-4 0  9996
2 40046  97.6971 281.6935 0055907 215.0400 144.7128 14.75764750360953
UKUBE-1                 
1 40074U 14037F   21067.54500545  .00000463  00000-0  62086-4 0  9993
2 40074  98.4419 277.4927 0004411   6.0510 354.0818 14.84475169360931
BRITE-PL2 (HEWELIUSZ)   
1 40119U 14049B   21067.53392909  .00000150  00000-0  24149-4 0  9999
2 40119  97.8864 163.1002 0016533 330.1632  29.8639 14.84610597354967
FIREBIRD 4              
1 40378U 15003C   21067.29314920  .00005507  00000-0  20342-3 0  9998
2 40378  99.0836 187.6299 0120275 151.3678 209.4229 15.21713249337410
GRIFEX                  
1 40379U 15003D   21067.53961829  .00003430  00000-0  14183-3 0  9991
2 40379  99.0817 178.0952 0129969 180.7785 179.3262 15.17513178336880
CP10 (EXOCUBE)          
1 40380U 15003E   21067.18613929  .00003412  00000-0  14869-3 0  9990
2 40380  99.0850 172.5005 0135112 199.6991 159.8989 15.15266284336488
AEROCUBE 8A             
1 40659U 15025J   21066.91527283  .00039279  00000-0  27146-3 0  9992
2 40659  55.0108 144.4638 0076799 143.2928 217.3410 15.70147666 84735
AEROCUBE 8B             
1 40660U 15025K   21066.62159520  .00043122  00000-0  29061-3 0  9997
2 40660  55.0073 142.8221 0074963 145.0793 215.5200 15.70849425 84716
TIANWANG 1C (TW-1C)     
1 40926U 15051B   21057.93770894  .05243455  22735-5  10757-2 0  9999
2 40926  97.0197 120.9742 0006610 258.8279 223.7215 16.31196197307135
TIANWANG 1A (TW-1A)     
1 40928U 15051D   21067.52902541  .00005848  00000-0  12672-3 0  9995
2 40928  97.0874  94.8756 0007899 309.5117 205.4898 15.44769526306103
EXACTVIEW 9             
1 40936U 15052G   21067.05856435  .00000866  00000-0  31903-4 0  9997
2 40936   6.0028 260.5239 0010096  31.2150 328.8577 14.76662657294190
AEROCUBE 5C             
1 40965U 15058B   21067.18008410  .00000471  00000-0  70806-4 0  9998
2 40965  64.7769  65.0477 0195005 342.1102  17.3199 14.74687252 80191
AEROCUBE 7              
1 40966U 15058C   21067.17170785  .00000607  00000-0  85185-4 0  9990
2 40966  64.7770  63.1625 0193973 341.7638  17.6572 14.75025246 80209
ATHENOXAT 1             
1 41168U 15077C   21067.25297929  .00003250  00000-0  13127-3 0  9998
2 41168  14.9843 284.8143 0010828 203.6088 302.7826 15.15283631289403
GALASSIA                
1 41170U 15077E   21067.22550111  .00002616  00000-0  97734-4 0  9995
2 41170  14.9885 276.0039 0012326 231.4398 128.4819 15.15533013289471
VELOX-II                
1 41171U 15077F   21066.93975658  .00002286  00000-0  90311-4 0  9997
2 41171  14.9918 331.8759 0008501 105.3091 254.8169 15.12284581288917
